[{"OBJECT_NAME":"STARLINK-3736","OBJECT_ID":"2022-029AB","EPOCH":"2026-03-09T09:49:19.011648","MEAN_MOTION":15.08839368,"ECCENTRICITY":0.00013722,"INCLINATION":53.2176,"RA_OF_ASC_NODE":80.3803,"ARG_OF_PERICENTER":91.0355,"MEAN_ANOMALY":269.0795,"EPHEMERIS_TYPE":0,"CLASSIFICATION_TYPE":"U","NORAD_CAT_ID":52113,"ELEMENT_SET_NO":999,"REV_AT_EPOCH":22074,"BSTAR":4.1697285e-5,"MEAN_MOTION_DOT":3.76e-6,"MEAN_MOTION_DDOT":0},{"OBJECT_NAME":"FALCON 9 DEB","OBJECT_ID":"2021-041BL","EPOCH":"2026-03-09T15:17:24.182016","MEAN_MOTION":15.12006404,"ECCENTRICITY":0.0011978,"INCLINATION":53.0274,"RA_OF_ASC_NODE":188.0035,"ARG_OF_PERICENTER":181.8726,"MEAN_ANOMALY":178.2223,"EPHEMERIS_TYPE":0,"CLASSIFICATION_TYPE":"U","NORAD_CAT_ID":48837,"ELEMENT_SET_NO":999,"REV_AT_EPOCH":26181,"BSTAR":0.00029601,"MEAN_MOTION_DOT":4.852e-5,"MEAN_MOTION_DDOT":0}]
